$$SOE
2460154.500000000, A.D. 2023-Jul-29 00:00:00.0000, -4.561144319192184E+08, 5.859616875534149E+08, 5.856004817105722E+07,
2460161.500000000, A.D. 2023-Aug-05 00:00:00.0000, -4.628990392439740E+08, 5.817825198084536E+08, 5.664638039289987E+07,
2460168.500000000, A.D. 2023-Aug-12 00:00:00.0000, -4.696294863854666E+08, 5.775351870260242E+08, 5.472607882952622E+07,
2460175.500000000, A.D. 2023-Aug-19 00:00:00.0000, -4.763051556050719E+08, 5.732203917461402E+08, 5.279938818272671E+07,
2460182.500000000, A.D. 2023-Aug-26 00:00:00.0000, -4.829254397681764E+08, 5.688388405543091E+08, 5.086655246280301E+07,
2460189.500000000, A.D. 2023-Sep-02 00:00:00.0000, -4.894897423430977E+08, 5.643912439274831E+08, 4.892781495608285E+07,
2460196.500000000, A.D. 2023-Sep-09 00:00:00.0000, -4.959974773836141E+08, 5.598783159694974E+08, 4.698341818192750E+07,
2460203.500000000, A.D. 2023-Sep-16 00:00:00.0000, -5.024480693267593E+08, 5.553007739779991E+08, 4.503360381909469E+07,
2460210.500000000, A.D. 2023-Sep-23 00:00:00.0000, -5.088409521895664E+08, 5.506593381296266E+08, 4.307861258676699E+07,
2460217.500000000, A.D. 2023-Sep-30 00:00:00.0000, -5.151755685045271E+08, 5.459547324741855E+08, 4.111868420879903E+07,
2460224.500000000, A.D. 2023-Oct-07 00:00:00.0000, -5.214513703477609E+08, 5.411876866952128E+08, 3.915405763284153E+07,
2460231.500000000, A.D. 2023-Oct-14 00:00:00.0000, -5.276678214199281E+08, 5.363589353239552E+08, 3.718497113835576E+07,
2460238.500000000, A.D. 2023-Oct-21 00:00:00.0000, -5.338243969511351E+08, 5.314692160092192E+08, 3.521166216853917E+07,
2460245.500000000, A.D. 2023-Oct-28 00:00:00.0000, -5.399205828544784E+08, 5.265192691031327E+08, 3.323436720174080E+07,
2460252.500000000, A.D. 2023-Nov-04 00:00:00.0000, -5.459558753785437E+08, 5.215098377926574E+08, 3.125332171431047E+07,
2460259.500000000, A.D. 2023-Nov-11 00:00:00.0000, -5.519297810813407E+08, 5.164416681771655E+08, 2.926876016981781E+07,
2460266.500000000, A.D. 2023-Nov-18 00:00:00.0000, -5.578418169061329E+08, 5.113155092278211E+08, 2.728091600948882E+07,
2460273.500000000, A.D. 2023-Nov-25 00:00:00.0000, -5.636915102862870E+08, 5.061321126513340E+08, 2.529002163922903E+07,
2460280.500000000, A.D. 2023-Dec-02 00:00:00.0000, -5.694783992508788E+08, 5.008922326468276E+08, 2.329630840989530E+07,
2460287.500000000, A.D. 2023-Dec-09 00:00:00.0000, -5.752020324531682E+08, 4.955966254967859E+08, 2.130000657896632E+07,
2460294.500000000, A.D. 2023-Dec-16 00:00:00.0000, -5.808619688343878E+08, 4.902460490044727E+08, 1.930134522829947E+07,
2460301.500000000, A.D. 2023-Dec-23 00:00:00.0000, -5.864577765745136E+08, 4.848412624650705E+08, 1.730055216215587E+07,
2460308.500000000, A.D. 2023-Dec-30 00:00:00.0000, -5.919890326705834E+08, 4.793830282197599E+08, 1.529785399405515E+07,
2460315.500000000, A.D. 2024-Jan-06 00:00:00.0000, -5.974553249153727E+08, 4.738721124322767E+08, 1.329347639192453E+07,
2460322.500000000, A.D. 2024-Jan-13 00:00:00.0000, -6.028562531036327E+08, 4.683092832812462E+08, 1.128764404263356E+07,
2460329.500000000, A.D. 2024-Jan-20 00:00:00.0000, -6.081914282422525E+08, 4.626953096527201E+08, 9.280580475515097E+06,
2460336.500000000, A.D. 2024-Jan-27 00:00:00.0000, -6.134604717933196E+08, 4.570309609851524E+08, 7.272507983978838E+06,
2460343.500000000, A.D. 2024-Feb-03 00:00:00.0000, -6.186630153785565E+08, 4.513170073183841E+08, 5.263647606720507E+06,
2460350.500000000, A.D. 2024-Feb-10 00:00:00.0000, -6.237987006677024E+08, 4.455542192555752E+08, 3.254219119060814E+06,
2460357.500000000, A.D. 2024-Feb-17 00:00:00.0000, -6.288671793120515E+08, 4.397433678459486E+08, 1.244441022151530E+06,
2460364.500000000, A.D. 2024-Feb-24 00:00:00.0000, -6.338681128871794E+08, 4.338852244030259E+08, -7.654694721941948E+05,
2460371.500000000, A.D. 2024-Mar-02 00:00:00.0000, -6.388011728155153E+08, 4.279805602257369E+08, -2.775296466506362E+06,
2460378.500000000, A.D. 2024-Mar-09 00:00:00.0000, -6.436660401300018E+08, 4.220301461594504E+08, -4.784825430453300E+06,
2460385.500000000, A.D. 2024-Mar-16 00:00:00.0000, -6.484624046835848E+08, 4.160347521941001E+08, -6.793843301617712E+06,
2460392.500000000, A.D. 2024-Mar-23 00:00:00.0000, -6.531899639082361E+08, 4.099951482083619E+08, -8.802138534162104E+06,
2460399.500000000, A.D. 2024-Mar-30 00:00:00.0000, -6.578484233649198E+08, 4.039121058331119E+08, -1.080950089205340E+07,
2460406.500000000, A.D. 2024-Apr-06 00:00:00.0000, -6.624374988286321E+08, 3.977863980667765E+08, -1.281572128557310E+07,
2460413.500000000, A.D. 2024-Apr-13 00:00:00.0000, -6.669569163571626E+08, 3.916187974790015E+08, -1.482059190846077E+07,
2460420.500000000, A.D. 2024-Apr-20 00:00:00.0000, -6.714064112956842E+08, 3.854100756790580E+08, -1.682390636959162E+07,
2460427.500000000, A.D. 2024-Apr-27 00:00:00.0000, -6.757857277344335E+08, 3.791610034875863E+08, -1.882545972591208E+07,
2460434.500000000, A.D. 2024-May-04 00:00:00.0000, -6.800946183317047E+08, 3.728723511084688E+08, -2.082504848214169E+07,
2460441.500000000, A.D. 2024-May-11 00:00:00.0000, -6.843328442638324E+08, 3.665448881992587E+08, -2.282247058733620E+07,
2460448.500000000, A.D. 2024-May-18 00:00:00.0000, -6.885001752201834E+08, 3.601793838620265E+08, -2.481752543393236E+07,
2460455.500000000, A.D. 2024-May-25 00:00:00.0000, -6.925963894184685E+08, 3.537766065477882E+08, -2.681001386195394E+07,
2460462.500000000, A.D. 2024-Jun-01 00:00:00.0000, -6.966212735805647E+08, 3.473373238173794E+08, -2.879973817835484E+07,
2460469.500000000, A.D. 2024-Jun-08 00:00:00.0000, -7.005746226225282E+08, 3.408623019360976E+08, -3.078650221573554E+07,
2460476.500000000, A.D. 2024-Jun-15 00:00:00.0000, -7.044562386593108E+08, 3.343523058474148E+08, -3.277011142227662E+07,
2460483.500000000, A.D. 2024-Jun-22 00:00:00.0000, -7.082659303295227E+08, 3.278081007010778E+08, -3.475037279440521E+07,
2460490.500000000, A.D. 2024-Jun-29 00:00:00.0000, -7.120035145621184E+08, 3.212304531150584E+08, -3.672709460618691E+07,
2460497.500000000, A.D. 2024-Jul-06 00:00:00.0000, -7.156688181400433E+08, 3.146201297006088E+08, -3.870008637980273E+07,
2460504.500000000, A.D. 2024-Jul-13 00:00:00.0000, -7.192616771112782E+08, 3.079778956745749E+08, -4.066915904491735E+07,
2460511.500000000, A.D. 2024-Jul-20 00:00:00.0000, -7.227819360328578E+08, 3.013045147075284E+08, -4.263412501083399E+07,
2460518.500000000, A.D. 2024-Jul-27 00:00:00.0000, -7.262294477039289E+08, 2.946007490482627E+08, -4.459479816968699E+07,
2460525.500000000, A.D. 2024-Aug-03 00:00:00.0000, -7.296040731148793E+08, 2.878673595497809E+08, -4.655099388641411E+07,
2460532.500000000, A.D. 2024-Aug-10 00:00:00.0000, -7.329056814467001E+08, 2.811051055924073E+08, -4.850252899120581E+07,
2460539.500000000, A.D. 2024-Aug-17 00:00:00.0000, -7.361341500732716E+08, 2.743147449258958E+08, -5.044922177718245E+07,
2460546.500000000, A.D. 2024-Aug-24 00:00:00.0000, -7.392893645388469E+08, 2.674970334085301E+08, -5.239089200791930E+07,
2460553.500000000, A.D. 2024-Aug-31 00:00:00.0000, -7.423712183952672E+08, 2.606527245820730E+08, -5.432736095072923E+07,
2460560.500000000, A.D. 2024-Sep-07 00:00:00.0000, -7.453796125335310E+08, 2.537825692093031E+08, -5.625845145918718E+07,
2460567.500000000, A.D. 2024-Sep-14 00:00:00.0000, -7.483144539245421E+08, 2.468873157703277E+08, -5.818398803159767E+07,
2460574.500000000, A.D. 2024-Sep-21 00:00:00.0000, -7.511756557979965E+08, 2.399677123304729E+08, -6.010379662585539E+07,
2460581.500000000, A.D. 2024-Sep-28 00:00:00.0000, -7.539631397471009E+08, 2.330245065524058E+08, -6.201770444999163E+07,
2460588.500000000, A.D. 2024-Oct-05 00:00:00.0000, -7.566768360893145E+08, 2.260584438544581E+08, -6.392554006499632E+07,
2460595.500000000, A.D. 2024-Oct-12 00:00:00.0000, -7.593166828434498E+08, 2.190702666952633E+08, -6.582713352334324E+07,
2460602.500000000, A.D. 2024-Oct-19 00:00:00.0000, -7.618826250740814E+08, 2.120607147138554E+08, -6.772231640480794E+07,
2460609.500000000, A.D. 2024-Oct-26 00:00:00.0000, -7.643746146357125E+08, 2.050305249239881E+08, -6.961092181215216E+07,
2460616.500000000, A.D. 2024-Nov-02 00:00:00.0000, -7.667926100593191E+08, 1.979804318145463E+08, -7.149278436241303E+07,
2460623.500000000, A.D. 2024-Nov-09 00:00:00.0000, -7.691365764845189E+08, 1.909111673770165E+08, -7.336774018093821E+07,
2460630.500000000, A.D. 2024-Nov-16 00:00:00.0000, -7.714064856112981E+08, 1.838234610605409E+08, -7.523562690047298E+07,
2460637.500000000, A.D. 2024-Nov-23 00:00:00.0000, -7.736023156242104E+08, 1.767180396049017E+08, -7.709628367361771E+07,
2460644.500000000, A.D. 2024-Nov-30 00:00:00.0000, -7.757240508806050E+08, 1.695956267090095E+08, -7.894955122116470E+07,
2460651.500000000, A.D. 2024-Dec-07 00:00:00.0000, -7.777716809433155E+08, 1.624569429556881E+08, -8.079527192030433E+07,
2460658.500000000, A.D. 2024-Dec-14 00:00:00.0000, -7.797451996463277E+08, 1.553027072168121E+08, -8.263328976939151E+07,
2460665.500000000, A.D. 2024-Dec-21 00:00:00.0000, -7.816446065120702E+08, 1.481336382980676E+08, -8.446345011789902E+07,
2460672.500000000, A.D. 2024-Dec-28 00:00:00.0000, -7.834699085480008E+08, 1.409504538561932E+08, -8.628559958485068E+07,
2460679.500000000, A.D. 2025-Jan-04 00:00:00.0000, -7.852211198250721E+08, 1.337538689650281E+08, -8.809958620953454E+07,
2460686.500000000, A.D. 2025-Jan-11 00:00:00.0000, -7.868982606590952E+08, 1.265445959901132E+08, -8.990525953153446E+07,
2460693.500000000, A.D. 2025-Jan-18 00:00:00.0000, -7.885013573119259E+08, 1.193233448529396E+08, -9.170247059083927E+07,
2460700.500000000, A.D. 2025-Jan-25 00:00:00.0000, -7.900304419690000E+08, 1.120908232103006E+08, -9.349107190892892E+07,
2460707.500000000, A.D. 2025-Feb-01 00:00:00.0000, -7.914855528036716E+08, 1.048477365186480E+08, -9.527091747044533E+07,
2460714.500000000, A.D. 2025-Feb-08 00:00:00.0000, -7.928667340698649E+08, 9.759478800314118E+07, -9.704186270897399E+07,
2460721.500000000, A.D. 2025-Feb-15 00:00:00.0000, -7.941740361941594E+08, 9.033267851138476E+07, -9.880376450102162E+07,
$$EOE